[{"OBJECT_NAME":"STARLINK-4215","OBJECT_ID":"2022-076X","EPOCH":"2026-03-09T10:53:34.138176","MEAN_MOTION":15.08837822,"ECCENTRICITY":0.00012885,"INCLINATION":53.2176,"RA_OF_ASC_NODE":95.1776,"ARG_OF_PERICENTER":89.7783,"MEAN_ANOMALY":270.3357,"EPHEMERIS_TYPE":0,"CLASSIFICATION_TYPE":"U","NORAD_CAT_ID":53007,"ELEMENT_SET_NO":999,"REV_AT_EPOCH":20281,"BSTAR":3.2208939e-5,"MEAN_MOTION_DOT":2.25e-6,"MEAN_MOTION_DDOT":0},{"OBJECT_NAME":"MUSAT-2","OBJECT_ID":"2024-043B","EPOCH":"2026-03-09T22:04:01.255008","MEAN_MOTION":15.07177436,"ECCENTRICITY":0.0006495,"INCLINATION":97.8438,"RA_OF_ASC_NODE":205.4399,"ARG_OF_PERICENTER":314.3478,"MEAN_ANOMALY":45.7216,"EPHEMERIS_TYPE":0,"CLASSIFICATION_TYPE":"U","NORAD_CAT_ID":59099,"ELEMENT_SET_NO":999,"REV_AT_EPOCH":11013,"BSTAR":0.00067214198,"MEAN_MOTION_DOT":0.00010059,"MEAN_MOTION_DDOT":0}]
